2023-104A               
1 57424U 23104A   26065.78279804  .00015492  00000+0  48200-3 0  9993
2 57424  97.2792 135.5625 0009333 122.1915 238.0234 15.33350758146346
STARLINK-34446          
1 65495U 25198D   26068.92417582  .00030076  00000+0  10240-2 0  9998
2 65495  53.1580 270.0765 0001123 189.3173 170.7807 15.30184011 28654
