[{"OBJECT_NAME":"OBJECT A","OBJECT_ID":"2023-104A","EPOCH":"2026-03-06T18:47:13.750656","MEAN_MOTION":15.33350758,"ECCENTRICITY":0.00093331,"INCLINATION":97.2792,"RA_OF_ASC_NODE":135.5625,"ARG_OF_PERICENTER":122.1915,"MEAN_ANOMALY":238.0234,"EPHEMERIS_TYPE":0,"CLASSIFICATION_TYPE":"U","NORAD_CAT_ID":57424,"ELEMENT_SET_NO":999,"REV_AT_EPOCH":14634,"BSTAR":0.00048200218,"MEAN_MOTION_DOT":0.00015492,"MEAN_MOTION_DDOT":0},{"OBJECT_NAME":"STARLINK-34446","OBJECT_ID":"2025-198D","EPOCH":"2026-03-09T22:10:48.791712","MEAN_MOTION":15.30184011,"ECCENTRICITY":0.00011231,"INCLINATION":53.158,"RA_OF_ASC_NODE":270.0765,"ARG_OF_PERICENTER":189.3173,"MEAN_ANOMALY":170.7807,"EPHEMERIS_TYPE":0,"CLASSIFICATION_TYPE":"U","NORAD_CAT_ID":65495,"ELEMENT_SET_NO":999,"REV_AT_EPOCH":2865,"BSTAR":0.0010239839,"MEAN_MOTION_DOT":0.00030076,"MEAN_MOTION_DDOT":0}]
